format  = 'OEF1.1'       ! file format
rectype = 'ML'           ! record type (1L/ML)
refsys  = ECLM J2000     ! default reference system
END_OF_HEADER
2006JU41
! Equinoctial elements: a, e*sin(LP), e*cos(LP), tan(i/2)*sin(LN), tan(i/2)*cos(LN), mean long.
 EQU   2.12350596655529E+00  -0.408169677796071   0.133192901440039    0.052567736939650    0.040778481356468 266.7916753042809
 MJD     53891.532345697 TDT
 MAG  19.386  0.150
! RMS    4.67853E-07   1.50657E-06   2.60627E-06   4.93099E-07   5.96953E-07   2.82972E-04
! EIG   4.64694E-08   6.92384E-08   3.54916E-07   4.71988E-07   1.35380E-06   5.66428E-06
! WEA   0.03844  -0.21511   0.43580  -0.03470  -0.04377   0.87133
 COV   2.188859708219568E-13 -8.998801385747949E-14  7.144559020809434E-13
 COV   2.004517710563440E-14  2.378335279081471E-14  5.891549939035877E-11
 COV   2.269764328988248E-12 -2.269425628983292E-12  5.075079525155698E-13
 COV   6.311623602576201E-13 -3.534765400059586E-10  6.792662354248836E-12
 COV  -2.248914308763439E-13 -2.913491619203034E-13  6.895160123535108E-10
 COV   2.431462052647460E-13  2.895623567967801E-13 -5.825768873466743E-11
 COV   3.563534442420670E-13 -7.344173584308825E-11  8.007310075785773E-08
 NOR   1.155750375472056E+13  2.555378957288093E+13 -2.622463565018090E+13
 NOR  -3.833497344237852E+12  3.827387484317924E+12  3.308453681772825E+11
 NOR   1.828475177135240E+14 -1.730995059974941E+14 -2.881920227464148E+13
 NOR   2.673980379284416E+13  2.282496250463042E+12  1.666001830720093E+14
 NOR   2.777139439497888E+13 -2.838668512993670E+13 -2.185277444791135E+12
 NOR   1.324681590721372E+14 -1.093683525262909E+14 -3.674741356948181E+11
 NOR   9.689084741959041E+13  3.689598519121383E+11  2.873361444868559E+10
